{
  "type": "FeatureCollection",
  "features": [
    {
      "type": "Feature",
      "properties": {
        "name": "Tumakuru",
        "state": "Karnataka",
        "region_id": "ka-tumakuru",
        "source": "geoBoundaries/KSRSAC",
        "license": "ODbL/Open"
      },
      "geometry": {
        "type": "Polygon",
        "coordinates": [
          [
            [
              76.5,
              13.5
            ],
            [
              76.5,
              13.75
            ],
            [
              76.5,
              14.0
            ],
            [
              76.83333333333333,
              14.0
            ],
            [
              77.16666666666667,
              14.0
            ],
            [
              77.16666666666667,
              13.75
            ],
            [
              77.16666666666667,
              13.5
            ],
            [
              77.5,
              13.5
            ],
            [
              77.5,
              13.25
            ],
            [
              77.5,
              13.0
            ],
            [
              77.16666666666667,
              13.0
            ],
            [
              76.83333333333333,
              13.0
            ],
            [
              76.5,
              13.0
            ],
            [
              76.5,
              13.25
            ],
            [
              76.5,
              13.5
            ]
          ]
        ]
      }
    }
  ]
}