{
  "type": "FeatureCollection",
  "features": [
    {
      "type": "Feature",
      "properties": {
        "name": "Ludhiana",
        "state": "Punjab",
        "region_id": "pb-ludhiana",
        "source": "PRSC / geoBoundaries ADM2 Punjab",
        "license": "ODbL/Open",
        "attribution": "Punjab Remote Sensing Centre (PRSC)",
        "boundary_is_official": true
      },
      "geometry": {
        "type": "Polygon",
        "coordinates": [
          [
            [
              76.19197,
              30.835
            ],
            [
              76.17663,
              30.87313
            ],
            [
              76.15453,
              30.90948
            ],
            [
              76.14775,
              30.95271
            ],
            [
              76.05553,
              30.9616
            ],
            [
              76.01407,
              30.99111
            ],
            [
              75.96523,
              31.02345
            ],
            [
              75.89695,
              31.04295
            ],
            [
              75.82,
              31.01822
            ],
            [
              75.74278,
              31.04365
            ],
            [
              75.69137,
              31.00192
            ],
            [
              75.61405,
              31.00067
            ],
            [
              75.56876,
              30.97004
            ],
            [
              75.49549,
              30.95155
            ],
            [
              75.47742,
              30.91127
            ],
            [
              75.44763,
              30.87481
            ],
            [
              75.45191,
              30.835
            ],
            [
              75.43631,
              30.79398
            ],
            [
              75.48286,
              30.75994
            ],
            [
              75.51849,
              30.72672
            ],
            [
              75.54994,
              30.68984
            ],
            [
              75.61454,
              30.66972
            ],
            [
              75.69014,
              30.66649
            ],
            [
              75.74365,
              30.62868
            ],
            [
              75.82,
              30.63911
            ],
            [
              75.8971,
              30.62667
            ],
            [
              75.95872,
              30.65499
            ],
            [
              76.00237,
              30.6883
            ],
            [
              76.10173,
              30.68357
            ],
            [
              76.1058,
              30.73236
            ],
            [
              76.12388,
              30.76734
            ],
            [
              76.212,
              30.79309
            ],
            [
              76.19197,
              30.835
            ]
          ]
        ]
      }
    }
  ]
}