{
  "type": "FeatureCollection",
  "features": [
    {
      "type": "Feature",
      "properties": {
        "name": "Ratnagiri",
        "state": "Maharashtra",
        "region_id": "mh-ratnagiri",
        "source": "MRSAC / geoBoundaries ADM2 Maharashtra",
        "license": "ODbL/Open",
        "attribution": "Maharashtra Remote Sensing Applications Centre (MRSAC)",
        "boundary_is_official": true
      },
      "geometry": {
        "type": "Polygon",
        "coordinates": [
          [
            [
              73.9161,
              17.3
            ],
            [
              73.93492,
              17.44356
            ],
            [
              73.88325,
              17.55882
            ],
            [
              73.83814,
              17.66099
            ],
            [
              73.82198,
              17.80997
            ],
            [
              73.76393,
              17.90031
            ],
            [
              73.68724,
              17.92125
            ],
            [
              73.62081,
              17.96747
            ],
            [
              73.55,
              17.96706
            ],
            [
              73.48577,
              17.90547
            ],
            [
              73.42249,
              17.87719
            ],
            [
              73.33121,
              17.91395
            ],
            [
              73.31751,
              17.73591
            ],
            [
              73.24462,
              17.68259
            ],
            [
              73.20903,
              17.56481
            ],
            [
              73.22006,
              17.42305
            ],
            [
              73.16035,
              17.3
            ],
            [
              73.18643,
              17.1644
            ],
            [
              73.2353,
              17.05559
            ],
            [
              73.22255,
              16.88976
            ],
            [
              73.29673,
              16.82512
            ],
            [
              73.34591,
              16.72731
            ],
            [
              73.41485,
              16.68824
            ],
            [
              73.47705,
              16.61237
            ],
            [
              73.55,
              16.59293
            ],
            [
              73.61691,
              16.66931
            ],
            [
              73.68843,
              16.67336
            ],
            [
              73.73452,
              16.78222
            ],
            [
              73.78245,
              16.86416
            ],
            [
              73.87001,
              16.89908
            ],
            [
              73.90057,
              17.02773
            ],
            [
              73.93032,
              17.15816
            ],
            [
              73.9161,
              17.3
            ]
          ]
        ]
      }
    }
  ]
}