{
  "type": "FeatureCollection",
  "features": [
    {
      "type": "Feature",
      "properties": {
        "name": "Jodhpur",
        "state": "Rajasthan",
        "region_id": "rj-jodhpur",
        "source": "State Remote Sensing Application Centre (SRSAC) / geoBoundaries ADM2",
        "license": "ODbL/Open",
        "attribution": "State Remote Sensing Application Centre Jodhpur (SRSAC)",
        "boundary_is_official": true
      },
      "geometry": {
        "type": "Polygon",
        "coordinates": [
          [
            [
              73.62152,
              26.8
            ],
            [
              73.66948,
              26.93505
            ],
            [
              73.59725,
              27.05483
            ],
            [
              73.52062,
              27.1659
            ],
            [
              73.46714,
              27.30041
            ],
            [
              73.36987,
              27.42049
            ],
            [
              73.22334,
              27.48877
            ],
            [
              73.05602,
              27.49207
            ],
            [
              72.9,
              27.52706
            ],
            [
              72.7503,
              27.46405
            ],
            [
              72.6147,
              27.40773
            ],
            [
              72.46665,
              27.37225
            ],
            [
              72.3421,
              27.29226
            ],
            [
              72.20432,
              27.21015
            ],
            [
              72.19832,
              27.05645
            ],
            [
              72.13372,
              26.93449
            ],
            [
              72.1402,
              26.8
            ],
            [
              72.19353,
              26.67601
            ],
            [
              72.25033,
              26.56256
            ],
            [
              72.2908,
              26.44084
            ],
            [
              72.34139,
              26.30711
            ],
            [
              72.43586,
              26.18708
            ],
            [
              72.63276,
              26.23073
            ],
            [
              72.75032,
              26.13602
            ],
            [
              72.9,
              26.0753
            ],
            [
              73.06469,
              26.06947
            ],
            [
              73.17617,
              26.21171
            ],
            [
              73.2929,
              26.28116
            ],
            [
              73.40901,
              26.35088
            ],
            [
              73.52111,
              26.43381
            ],
            [
              73.5956,
              26.54577
            ],
            [
              73.67236,
              26.66444
            ],
            [
              73.62152,
              26.8
            ]
          ]
        ]
      }
    }
  ]
}